{"type": "FeatureCollection", "features": [ {"type": "Feature", "properties": {"norad_id": 34014, "name": "COSMOS 2251 DEB", "group": "cosmos-2251-debris", "lat": -67.40435562111742, "lon": -135.41893986631186, "alt_km": 670.6769847711184, "timestamp": "2025-12-19T04:59:48.700208+00:00", "meta": {"OBJECT_NAME": "COSMOS 2251 DEB", "OBJECT_ID": "1993-036GZ", "EPOCH": "2025-12-18T21:29:36.466944", "MEAN_MOTION": 14.73209754, "ECCENTRICITY": 0.00373054, "INCLINATION": 74.0178, "RA_OF_ASC_NODE": 268.715, "ARG_OF_PERICENTER": 46.6713, "MEAN_ANOMALY": 22.488, "EPHEMERIS_TYPE": 0, "CLASSIFICATION_TYPE": "U", "NORAD_CAT_ID": 34014, "ELEMENT_SET_NO": 999, "REV_AT_EPOCH": 89394, "BSTAR": 0.00070231725, "MEAN_MOTION_DOT": 4.553e-05, "MEAN_MOTION_DDOT": 0}, "tle": {"line1": "1 34014U 93036GZ  25352.89556096  .00004553  00000+0  70232-3 0  9991", "line2": "2 34014  74.0178 268.7150 0037305  46.6713  22.4880 14.73209754893944"}}, "geometry": {"type": "Point", "coordinates": [-135.41893986631186, -67.40435562111742]}}, {"type": "Feature", "properties": {"norad_id": 34015, "name": "COSMOS 2251 DEB", "group": "cosmos-2251-debris", "lat": 69.52266361622293, "lon": -83.03741472869005, "alt_km": 696.4906993840041, "timestamp": "2025-12-19T04:59:48.700219+00:00", "meta": {"OBJECT_NAME": "COSMOS 2251 DEB", "OBJECT_ID": "1993-036HA", "EPOCH": "2025-12-18T20:49:36.533280", "MEAN_MOTION": 14.60329926, "ECCENTRICITY": 0.00209707, "INCLINATION": 74.023, "RA_OF_ASC_NODE": 147.7163, "ARG_OF_PERICENTER": 244.5586, "MEAN_ANOMALY": 229.6249, "EPHEMERIS_TYPE": 0, "CLASSIFICATION_TYPE": "U", "NORAD_CAT_ID": 34015, "ELEMENT_SET_NO": 999, "REV_AT_EPOCH": 88620, "BSTAR": 0.0011695602, "MEAN_MOTION_DOT": 5.645e-05, "MEAN_MOTION_DDOT": 0}, "tle": {"line1": "1 34015U 93036HA  25352.86778395  .00005645  00000+0  11696-2 0  9998", "line2": "2 34015  74.0230 147.7163 0020970 244.5586 229.6249 14.60329926886202"}}, "geometry": {"type": "Point", "coordinates": [-83.03741472869005, 69.52266361622293]}}, {"type": "Feature", "properties": {"norad_id": 34018, "name": "COSMOS 2251 DEB", "group": "cosmos-2251-debris", "lat": -24.51184347118977, "lon": -91.28688203755596, "alt_km": 959.0503085862601, "timestamp": "2025-12-19T04:59:48.700229+00:00", "meta": {"OBJECT_NAME": "COSMOS 2251 DEB", "OBJECT_ID": "1993-036HD", "EPOCH": "2025-12-18T12:28:21.820800", "MEAN_MOTION": 13.81078586, "ECCENTRICITY": 0.02634097, "INCLINATION": 73.8781, "RA_OF_ASC_NODE": 82.3012, "ARG_OF_PERICENTER": 117.0842, "MEAN_ANOMALY": 263.5035, "EPHEMERIS_TYPE": 0, "CLASSIFICATION_TYPE": "U", "NORAD_CAT_ID": 34018, "ELEMENT_SET_NO": 999, "REV_AT_EPOCH": 84737, "BSTAR": 0.00030216785, "MEAN_MOTION_DOT": 3.94e-06, "MEAN_MOTION_DDOT": 0}, "tle": {"line1": "1 34018U 93036HD  25352.51969700  .00000394  00000+0  30217-3 0  9992", "line2": "2 34018  73.8781  82.3012 0263409 117.0842 263.5035 13.81078586847375"}}, "geometry": {"type": "Point", "coordinates": [-91.28688203755596, -24.51184347118977]}}, {"type": "Feature", "properties": {"norad_id": 34019, "name": "COSMOS 2251 DEB", "group": "cosmos-2251-debris", "lat": 58.82758686040943, "lon": -169.5607668604558, "alt_km": 781.5427441251113, "timestamp": "2025-12-19T04:59:48.700239+00:00", "meta": {"OBJECT_NAME": "COSMOS 2251 DEB", "OBJECT_ID": "1993-036HE", "EPOCH": "2025-12-18T14:05:34.771200", "MEAN_MOTION": 14.33963758, "ECCENTRICITY": 0.00625144, "INCLINATION": 73.9546, "RA_OF_ASC_NODE": 39.9865, "ARG_OF_PERICENTER": 220.3775, "MEAN_ANOMALY": 292.8954, "EPHEMERIS_TYPE": 0, "CLASSIFICATION_TYPE": "U", "NORAD_CAT_ID": 34019, "ELEMENT_SET_NO": 999, "REV_AT_EPOCH": 87604, "BSTAR": 0.00060238319, "MEAN_MOTION_DOT": 1.691e-05, "MEAN_MOTION_DDOT": 0}, "tle": {"line1": "1 34019U 93036HE  25352.58720800  .00001691  00000+0  60238-3 0  9993", "line2": "2 34019  73.9546  39.9865 0062514 220.3775 292.8954 14.33963758876040"}}, "geometry": {"type": "Point", "coordinates": [-169.5607668604558, 58.82758686040943]}}, {"type": "Feature", "properties": {"norad_id": 34021, "name": "COSMOS 2251 DEB", "group": "cosmos-2251-debris", "lat": -46.68131609885538, "lon": -44.644297427194495, "alt_km": 719.5279691762471, "timestamp": "2025-12-19T04:59:48.700250+00:00", "meta": {"OBJECT_NAME": "COSMOS 2251 DEB", "OBJECT_ID": "1993-036HG", "EPOCH": "2025-12-18T09:59:12.329952", "MEAN_MOTION": 14.49967996, "ECCENTRICITY": 0.00209503, "INCLINATION": 74.0359, "RA_OF_ASC_NODE": 119.1704, "ARG_OF_PERICENTER": 262.6354, "MEAN_ANOMALY": 153.6647, "EPHEMERIS_TYPE": 0, "CLASSIFICATION_TYPE": "U", "NORAD_CAT_ID": 34021, "ELEMENT_SET_NO": 999, "REV_AT_EPOCH": 88712, "BSTAR": 0.00037948616, "MEAN_MOTION_DOT": 1.445e-05, "MEAN_MOTION_DDOT": 0}, "tle": {"line1": "1 34021U 93036HG  25352.41611493  .00001445  00000+0  37949-3 0  9995", "line2": "2 34021  74.0359 119.1704 0020950 262.6354 153.6647 14.49967996887129"}}, "geometry": {"type": "Point", "coordinates": [-44.644297427194495, -46.68131609885538]}}, {"type": "Feature", "properties": {"norad_id": 34022, "name": "COSMOS 2251 DEB", "group": "cosmos-2251-debris", "lat": 28.895152511125612, "lon": 69.79757069548174, "alt_km": 776.419565959699, "timestamp": "2025-12-19T04:59:48.700260+00:00", "meta": {"OBJECT_NAME": "COSMOS 2251 DEB", "OBJECT_ID": "1993-036HH", "EPOCH": "2025-12-18T20:16:15.060000", "MEAN_MOTION": 14.38972287, "ECCENTRICITY": 0.00229161, "INCLINATION": 74.0541, "RA_OF_ASC_NODE": 259.5464, "ARG_OF_PERICENTER": 323.5041, "MEAN_ANOMALY": 103.5501, "EPHEMERIS_TYPE": 0, "CLASSIFICATION_TYPE": "U", "NORAD_CAT_ID": 34022, "ELEMENT_SET_NO": 999, "REV_AT_EPOCH": 88283, "BSTAR": 0.00016921562, "MEAN_MOTION_DOT": 4.97e-06, "MEAN_MOTION_DDOT": 0}, "tle": {"line1": "1 34022U 93036HH  25352.84461875  .00000497  00000+0  16922-3 0  9994", "line2": "2 34022  74.0541 259.5464 0022916 323.5041 103.5501 14.38972287882832"}}, "geometry": {"type": "Point", "coordinates": [69.79757069548174, 28.895152511125612]}}, {"type": "Feature", "properties": {"norad_id": 34023, "name": "COSMOS 2251 DEB", "group": "cosmos-2251-debris", "lat": 67.10004307648379, "lon": 17.07265401963304, "alt_km": 758.6582231934344, "timestamp": "2025-12-19T04:59:48.700270+00:00", "meta": {"OBJECT_NAME": "COSMOS 2251 DEB", "OBJECT_ID": "1993-036HJ", "EPOCH": "2025-12-18T16:58:48.662688", "MEAN_MOTION": 14.40573342, "ECCENTRICITY": 0.00186958, "INCLINATION": 74.0246, "RA_OF_ASC_NODE": 240.6992, "ARG_OF_PERICENTER": 335.4416, "MEAN_ANOMALY": 55.398, "EPHEMERIS_TYPE": 0, "CLASSIFICATION_TYPE": "U", "NORAD_CAT_ID": 34023, "ELEMENT_SET_NO": 999, "REV_AT_EPOCH": 88300, "BSTAR": 0.00023300897, "MEAN_MOTION_DOT": 7.17e-06, "MEAN_MOTION_DDOT": 0}, "tle": {"line1": "1 34023U 93036HJ  25352.70750767  .00000717  00000+0  23301-3 0  9995", "line2": "2 34023  74.0246 240.6992 0018695 335.4416  55.3980 14.40573342883006"}}, "geometry": {"type": "Point", "coordinates": [17.07265401963304, 67.10004307648379]}}, {"type": "Feature", "properties": {"norad_id": 34024, "name": "COSMOS 2251 DEB", "group": "cosmos-2251-debris", "lat": -4.305800849655748, "lon": -57.09659796148936, "alt_km": 761.6468007151234, "timestamp": "2025-12-19T04:59:48.700280+00:00", "meta": {"OBJECT_NAME": "COSMOS 2251 DEB", "OBJECT_ID": "1993-036HK", "EPOCH": "2025-12-18T22:35:17.181312", "MEAN_MOTION": 14.35402979, "ECCENTRICITY": 0.00213159, "INCLINATION": 74.0468, "RA_OF_ASC_NODE": 304.6267, "ARG_OF_PERICENTER": 353.9721, "MEAN_ANOMALY": 62.3385, "EPHEMERIS_TYPE": 0, "CLASSIFICATION_TYPE": "U", "NORAD_CAT_ID": 34024, "ELEMENT_SET_NO": 999, "REV_AT_EPOCH": 88113, "BSTAR": 0.00014225604, "MEAN_MOTION_DOT": 3.83e-06, "MEAN_MOTION_DDOT": 0}, "tle": {"line1": "1 34024U 93036HK  25352.94117108  .00000383  00000+0  14226-3 0  9993", "line2": "2 34024  74.0468 304.6267 0021315 353.9721  62.3385 14.35402979881136"}}, "geometry": {"type": "Point", "coordinates": [-57.09659796148936, -4.305800849655748]}}, {"type": "Feature", "properties": {"norad_id": 34026, "name": "COSMOS 2251 DEB", "group": "cosmos-2251-debris", "lat": 46.841896642968955, "lon": -15.369251822244939, "alt_km": 1223.8222896031366, "timestamp": "2025-12-19T04:59:48.700291+00:00", "meta": {"OBJECT_NAME": "COSMOS 2251 DEB", "OBJECT_ID": "1993-036HM", "EPOCH": "2025-12-17T16:40:17.033376", "MEAN_MOTION": 13.65315727, "ECCENTRICITY": 0.035016, "INCLINATION": 73.7668, "RA_OF_ASC_NODE": 329.0456, "ARG_OF_PERICENTER": 198.3141, "MEAN_ANOMALY": 336.8728, "EPHEMERIS_TYPE": 0, "CLASSIFICATION_TYPE": "U", "NORAD_CAT_ID": 34026, "ELEMENT_SET_NO": 999, "REV_AT_EPOCH": 83599, "BSTAR": 0.00043861076, "MEAN_MOTION_DOT": 5.19e-06, "MEAN_MOTION_DDOT": 0}, "tle": {"line1": "1 34026U 93036HM  25351.69464159  .00000519  00000+0  43861-3 0  9995", "line2": "2 34026  73.7668 329.0456 0350160 198.3141 336.8728 13.65315727835996"}}, "geometry": {"type": "Point", "coordinates": [-15.369251822244939, 46.841896642968955]}}, {"type": "Feature", "properties": {"norad_id": 34028, "name": "COSMOS 2251 DEB", "group": "cosmos-2251-debris", "lat": 66.51052088889676, "lon": 115.63179746833546, "alt_km": 767.0280523630918, "timestamp": "2025-12-19T04:59:48.700301+00:00", "meta": {"OBJECT_NAME": "COSMOS 2251 DEB", "OBJECT_ID": "1993-036HP", "EPOCH": "2025-12-18T09:01:48.565056", "MEAN_MOTION": 13.20627267, "ECCENTRICITY": 0.0543563, "INCLINATION": 73.8835, "RA_OF_ASC_NODE": 338.6086, "ARG_OF_PERICENTER": 115.4867, "MEAN_ANOMALY": 358.6311, "EPHEMERIS_TYPE": 0, "CLASSIFICATION_TYPE": "U", "NORAD_CAT_ID": 34028, "ELEMENT_SET_NO": 999, "REV_AT_EPOCH": 81082, "BSTAR": 0.00046025377, "MEAN_MOTION_DOT": 3.9e-06, "MEAN_MOTION_DDOT": 0}, "tle": {"line1": "1 34028U 93036HP  25352.37625654  .00000390  00000+0  46025-3 0  9994", "line2": "2 34028  73.8835 338.6086 0543563 115.4867 358.6311 13.20627267810827"}}, "geometry": {"type": "Point", "coordinates": [115.63179746833546, 66.51052088889676]}}]}